[{"OBJECT_NAME":"STARLINK-34968","OBJECT_ID":"2025-184D","EPOCH":"2026-03-09T17:00:58.645440","MEAN_MOTION":15.05647443,"ECCENTRICITY":9.017e-5,"INCLINATION":97.6025,"RA_OF_ASC_NODE":122.6783,"ARG_OF_PERICENTER":93.8917,"MEAN_ANOMALY":266.2413,"EPHEMERIS_TYPE":0,"CLASSIFICATION_TYPE":"U","NORAD_CAT_ID":65276,"ELEMENT_SET_NO":999,"REV_AT_EPOCH":3130,"BSTAR":0.00015362574,"MEAN_MOTION_DOT":2.156e-5,"MEAN_MOTION_DDOT":0},{"OBJECT_NAME":"NOAA 16 DEB","OBJECT_ID":"2000-055NX","EPOCH":"2026-03-08T23:11:13.556832","MEAN_MOTION":15.01016664,"ECCENTRICITY":0.00157984,"INCLINATION":98.8636,"RA_OF_ASC_NODE":259.6913,"ARG_OF_PERICENTER":295.8562,"MEAN_ANOMALY":64.1029,"EPHEMERIS_TYPE":0,"CLASSIFICATION_TYPE":"U","NORAD_CAT_ID":41658,"ELEMENT_SET_NO":999,"REV_AT_EPOCH":9741,"BSTAR":0.010110988,"MEAN_MOTION_DOT":0.00131742,"MEAN_MOTION_DDOT":0}]
